CCSDS_OMM_VERS = 2.0
CREATION_DATE  = 
ORIGINATOR     = 

OBJECT_NAME    = SL-14 R/B
OBJECT_ID      = 1988-001B
CENTER_NAME    = EARTH
REF_FRAME      = TEME
TIME_SYSTEM    = UTC
MEAN_ELEMENT_THEORY = SGP/SGP4

EPOCH          = 2025-12-01T22:23:45.962304
MEAN_MOTION    = 14.85404726
ECCENTRICITY   = .0017505
INCLINATION    = 82.5123
RA_OF_ASC_NODE = 287.3120
ARG_OF_PERICENTER = 196.8443
MEAN_ANOMALY   = 163.2194

EPHEMERIS_TYPE = 0
CLASSIFICATION_TYPE = U
NORAD_CAT_ID   = 18749
ELEMENT_SET_NO = 999
REV_AT_EPOCH   = 2751
BSTAR          = .74694E-4
MEAN_MOTION_DOT = .669E-5
MEAN_MOTION_DDOT = 0

CCSDS_OMM_VERS = 2.0
CREATION_DATE  = 
ORIGINATOR     = 

OBJECT_NAME    = COSMOS 1933
OBJECT_ID      = 1988-020A
CENTER_NAME    = EARTH
REF_FRAME      = TEME
TIME_SYSTEM    = UTC
MEAN_ELEMENT_THEORY = SGP/SGP4

EPOCH          = 2025-12-02T03:12:02.609856
MEAN_MOTION    = 15.16969783
ECCENTRICITY   = .0004839
INCLINATION    = 82.5130
RA_OF_ASC_NODE = 347.3590
ARG_OF_PERICENTER = 156.0531
MEAN_ANOMALY   = 204.0928

EPHEMERIS_TYPE = 0
CLASSIFICATION_TYPE = U
NORAD_CAT_ID   = 18958
ELEMENT_SET_NO = 999
REV_AT_EPOCH   = 3543
BSTAR          = .23799E-3
MEAN_MOTION_DOT = .4727E-4
MEAN_MOTION_DDOT = 0

CCSDS_OMM_VERS = 2.0
CREATION_DATE  = 
ORIGINATOR     = 

OBJECT_NAME    = SL-3 R/B
OBJECT_ID      = 1988-032B
CENTER_NAME    = EARTH
REF_FRAME      = TEME
TIME_SYSTEM    = UTC
MEAN_ELEMENT_THEORY = SGP/SGP4

EPOCH          = 2025-12-02T04:29:50.798400
MEAN_MOTION    = 15.18570198
ECCENTRICITY   = .0025584
INCLINATION    = 97.5064
RA_OF_ASC_NODE = 314.9832
ARG_OF_PERICENTER = 210.4038
MEAN_ANOMALY   = 149.5714

EPHEMERIS_TYPE = 0
CLASSIFICATION_TYPE = U
NORAD_CAT_ID   = 19046
ELEMENT_SET_NO = 999
REV_AT_EPOCH   = 3730
BSTAR          = .28891E-3
MEAN_MOTION_DOT = .5952E-4
MEAN_MOTION_DDOT = 0

CCSDS_OMM_VERS = 2.0
CREATION_DATE  = 
ORIGINATOR     = 

OBJECT_NAME    = SL-16 R/B
OBJECT_ID      = 1988-039B
CENTER_NAME    = EARTH
REF_FRAME      = TEME
TIME_SYSTEM    = UTC
MEAN_ELEMENT_THEORY = SGP/SGP4

EPOCH          = 2025-12-02T04:15:28.694880
MEAN_MOTION    = 14.19593235
ECCENTRICITY   = .0020082
INCLINATION    = 71.0147
RA_OF_ASC_NODE = 274.7306
ARG_OF_PERICENTER = 134.0748
MEAN_ANOMALY   = 226.2035

EPHEMERIS_TYPE = 0
CLASSIFICATION_TYPE = U
NORAD_CAT_ID   = 19120
ELEMENT_SET_NO = 999
REV_AT_EPOCH   = 94454
BSTAR          = .24301E-4
MEAN_MOTION_DOT = .3E-7
MEAN_MOTION_DDOT = 0

CCSDS_OMM_VERS = 2.0
CREATION_DATE  = 
ORIGINATOR     = 

OBJECT_NAME    = COSMOS 1953
OBJECT_ID      = 1988-050A
CENTER_NAME    = EARTH
REF_FRAME      = TEME
TIME_SYSTEM    = UTC
MEAN_ELEMENT_THEORY = SGP/SGP4

EPOCH          = 2025-12-02T05:14:39.125760
MEAN_MOTION    = 15.26739693
ECCENTRICITY   = .0013766
INCLINATION    = 82.5093
RA_OF_ASC_NODE = 256.1357
ARG_OF_PERICENTER = 103.2755
MEAN_ANOMALY   = 257.0020

EPHEMERIS_TYPE = 0
CLASSIFICATION_TYPE = U
NORAD_CAT_ID   = 19210
ELEMENT_SET_NO = 999
REV_AT_EPOCH   = 2290
BSTAR          = .27463E-3
MEAN_MOTION_DOT = .7271E-4
MEAN_MOTION_DDOT = 0

CCSDS_OMM_VERS = 2.0
CREATION_DATE  = 
ORIGINATOR     = 

OBJECT_NAME    = SL-8 R/B
OBJECT_ID      = 1988-053B
CENTER_NAME    = EARTH
REF_FRAME      = TEME
TIME_SYSTEM    = UTC
MEAN_ELEMENT_THEORY = SGP/SGP4

EPOCH          = 2025-12-02T04:31:52.669056
MEAN_MOTION    = 14.38848230
ECCENTRICITY   = .0019263
INCLINATION    = 74.0473
RA_OF_ASC_NODE = 292.1652
ARG_OF_PERICENTER = 140.1143
MEAN_ANOMALY   = 323.7409

EPHEMERIS_TYPE = 0
CLASSIFICATION_TYPE = U
NORAD_CAT_ID   = 19257
ELEMENT_SET_NO = 999
REV_AT_EPOCH   = 96257
BSTAR          = .1024E-3
MEAN_MOTION_DOT = .29E-5
MEAN_MOTION_DDOT = 0

CCSDS_OMM_VERS = 2.0
CREATION_DATE  = 
ORIGINATOR     = 

OBJECT_NAME    = COSMOS 1975
OBJECT_ID      = 1988-093A
CENTER_NAME    = EARTH
REF_FRAME      = TEME
TIME_SYSTEM    = UTC
MEAN_ELEMENT_THEORY = SGP/SGP4

EPOCH          = 2025-12-02T03:51:10.999872
MEAN_MOTION    = 15.26223766
ECCENTRICITY   = .0012114
INCLINATION    = 82.5216
RA_OF_ASC_NODE = 215.4162
ARG_OF_PERICENTER = 145.7799
MEAN_ANOMALY   = 214.4223

EPHEMERIS_TYPE = 0
CLASSIFICATION_TYPE = U
NORAD_CAT_ID   = 19573
ELEMENT_SET_NO = 999
REV_AT_EPOCH   = 452
BSTAR          = .3853E-3
MEAN_MOTION_DOT = .10026E-3
MEAN_MOTION_DDOT = 0

CCSDS_OMM_VERS = 2.0
CREATION_DATE  = 
ORIGINATOR     = 

OBJECT_NAME    = SL-14 R/B
OBJECT_ID      = 1988-093B
CENTER_NAME    = EARTH
REF_FRAME      = TEME
TIME_SYSTEM    = UTC
MEAN_ELEMENT_THEORY = SGP/SGP4

EPOCH          = 2025-12-01T22:34:54.082272
MEAN_MOTION    = 14.85529861
ECCENTRICITY   = .0020864
INCLINATION    = 82.5296
RA_OF_ASC_NODE = 133.8012
ARG_OF_PERICENTER = 5.7524
MEAN_ANOMALY   = 110.4457

EPHEMERIS_TYPE = 0
CLASSIFICATION_TYPE = U
NORAD_CAT_ID   = 19574
ELEMENT_SET_NO = 999
REV_AT_EPOCH   = 98652
BSTAR          = .71639E-4
MEAN_MOTION_DOT = .645E-5
MEAN_MOTION_DDOT = 0

CCSDS_OMM_VERS = 2.0
CREATION_DATE  = 
ORIGINATOR     = 

OBJECT_NAME    = SL-16 R/B
OBJECT_ID      = 1988-102B
CENTER_NAME    = EARTH
REF_FRAME      = TEME
TIME_SYSTEM    = UTC
MEAN_ELEMENT_THEORY = SGP/SGP4

EPOCH          = 2025-12-02T03:29:41.573184
MEAN_MOTION    = 14.16137411
ECCENTRICITY   = .0013498
INCLINATION    = 71.0004
RA_OF_ASC_NODE = 356.7349
ARG_OF_PERICENTER = 169.3585
MEAN_ANOMALY   = 190.7826

EPHEMERIS_TYPE = 0
CLASSIFICATION_TYPE = U
NORAD_CAT_ID   = 19650
ELEMENT_SET_NO = 999
REV_AT_EPOCH   = 91308
BSTAR          = -.97051E-5
MEAN_MOTION_DOT = -.67E-6
MEAN_MOTION_DDOT = 0

CCSDS_OMM_VERS = 2.0
CREATION_DATE  = 
ORIGINATOR     = 

OBJECT_NAME    = INTERCOSMOS 24
OBJECT_ID      = 1989-080A
CENTER_NAME    = EARTH
REF_FRAME      = TEME
TIME_SYSTEM    = UTC
MEAN_ELEMENT_THEORY = SGP/SGP4

EPOCH          = 2025-12-02T00:26:36.580416
MEAN_MOTION    = 12.59408441
ECCENTRICITY   = .1188702
INCLINATION    = 82.6044
RA_OF_ASC_NODE = 167.9238
ARG_OF_PERICENTER = 159.3833
MEAN_ANOMALY   = 205.9749

EPHEMERIS_TYPE = 0
CLASSIFICATION_TYPE = U
NORAD_CAT_ID   = 20261
ELEMENT_SET_NO = 999
REV_AT_EPOCH   = 65450
BSTAR          = .26592E-3
MEAN_MOTION_DOT = .923E-5
MEAN_MOTION_DDOT = 0

CCSDS_OMM_VERS = 2.0
CREATION_DATE  = 
ORIGINATOR     = 

OBJECT_NAME    = SL-14 R/B
OBJECT_ID      = 1989-080C
CENTER_NAME    = EARTH
REF_FRAME      = TEME
TIME_SYSTEM    = UTC
MEAN_ELEMENT_THEORY = SGP/SGP4

EPOCH          = 2025-12-02T02:28:55.781760
MEAN_MOTION    = 12.50399485
ECCENTRICITY   = .1230821
INCLINATION    = 82.5939
RA_OF_ASC_NODE = 235.8469
ARG_OF_PERICENTER = 47.8916
MEAN_ANOMALY   = 322.0400

EPHEMERIS_TYPE = 0
CLASSIFICATION_TYPE = U
NORAD_CAT_ID   = 20262
ELEMENT_SET_NO = 999
REV_AT_EPOCH   = 64795
BSTAR          = .14874E-3
MEAN_MOTION_DOT = .518E-5
MEAN_MOTION_DDOT = 0

CCSDS_OMM_VERS = 2.0
CREATION_DATE  = 
ORIGINATOR     = 

OBJECT_NAME    = DELTA 1 R/B
OBJECT_ID      = 1989-089B
CENTER_NAME    = EARTH
REF_FRAME      = TEME
TIME_SYSTEM    = UTC
MEAN_ELEMENT_THEORY = SGP/SGP4

EPOCH          = 2025-12-02T03:42:53.664192
MEAN_MOTION    = 14.50558099
ECCENTRICITY   = .007062
INCLINATION    = 97.0760
RA_OF_ASC_NODE = 194.0695
ARG_OF_PERICENTER = 71.1472
MEAN_ANOMALY   = 289.7367

EPHEMERIS_TYPE = 0
CLASSIFICATION_TYPE = U
NORAD_CAT_ID   = 20323
ELEMENT_SET_NO = 999
REV_AT_EPOCH   = 88159
BSTAR          = .11828E-3
MEAN_MOTION_DOT = .444E-5
MEAN_MOTION_DDOT = 0

