SL-14 R/B               
1 18749U 88001B   25335.93317086  .00000669  00000+0  74694-4 0  9995
2 18749  82.5123 287.3120 0017505 196.8443 163.2194 14.85404726 27510
COSMOS 1933             
1 18958U 88020A   25336.13336354  .00004727  00000+0  23799-3 0  9998
2 18958  82.5130 347.3590 0004839 156.0531 204.0928 15.16969783 35433
SL-3 R/B                
1 19046U 88032B   25336.18739350  .00005952  00000+0  28891-3 0  9997
2 19046  97.5064 314.9832 0025584 210.4038 149.5714 15.18570198 37304
SL-16 R/B               
1 19120U 88039B   25336.17741545  .00000003  00000+0  24301-4 0  9990
2 19120  71.0147 274.7306 0020082 134.0748 226.2035 14.19593235944541
COSMOS 1953             
1 19210U 88050A   25336.21850840  .00007271  00000+0  27463-3 0  9992
2 19210  82.5093 256.1357 0013766 103.2755 257.0020 15.26739693 22907
SL-8 R/B                
1 19257U 88053B   25336.18880404  .00000290  00000+0  10240-3 0  9990
2 19257  74.0473 292.1652 0019263 140.1143 323.7409 14.38848230962571
COSMOS 1975             
1 19573U 88093A   25336.16054398  .00010026  00000+0  38530-3 0  9998
2 19573  82.5216 215.4162 0012114 145.7799 214.4223 15.26223766  4522
SL-14 R/B               
1 19574U 88093B   25335.94090373  .00000645  00000+0  71639-4 0  9991
2 19574  82.5296 133.8012 0020864   5.7524 110.4457 14.85529861986522
SL-16 R/B               
1 19650U 88102B   25336.14562006 -.00000067  00000+0 -97051-5 0  9994
2 19650  71.0004 356.7349 0013498 169.3585 190.7826 14.16137411913087
INTERCOSMOS 24          
1 20261U 89080A   25336.01847894  .00000923  00000+0  26592-3 0  9996
2 20261  82.6044 167.9238 1188702 159.3833 205.9749 12.59408441654506
SL-14 R/B               
1 20262U 89080C   25336.10342340  .00000518  00000+0  14874-3 0  9993
2 20262  82.5939 235.8469 1230821  47.8916 322.0400 12.50399485647957
DELTA 1 R/B             
1 20323U 89089B   25336.15478778  .00000444  00000+0  11828-3 0  9994
2 20323  97.0760 194.0695 0070620  71.1472 289.7367 14.50558099881591
